{
  "type": "FeatureCollection",
  "features": [
    {
      "type": "Feature",
      "geometry": {
        "type": "Polygon",
        "coordinates": [
          [
            [
              4.666667,
              40.030833
            ],
            [
              5.502778,
              40.398889
            ],
            [
              6.326944,
              40.508889
            ],
            [
              6.495,
              40.706111
            ],
            [
              8.0,
              40.744722
            ],
            [
              8.0,
              40.35
            ],
            [
              8.003889,
              39.998611
            ],
            [
              8.000278,
              39.212778
            ],
            [
              8.0,
              39.0
            ],
            [
              5.0,
              39.0
            ],
            [
              4.666667,
              39.0
            ],
            [
              4.666667,
              39.716667
            ],
            [
              4.666667,
              39.989722
            ],
            [
              4.666667,
              40.030833
            ]
          ]
        ]
      },
      "properties": {
        "name": "ZL1 UAC",
        "owner": "MM",
        "owners": [
          "WU",
          "MMU",
          "RAW",
          "MM"
        ],
        "min": 0,
        "cur": 180,
        "max": 194,
        "color_hex": "#909967",
        "stroke": "#909967",
        "stroke-width": 1,
        "stroke-opacity": 0.7,
        "fill": "#909967",
        "fill-opacity": 0.3
      }
    },
    {
      "type": "Feature",
      "geometry": {
        "type": "Polygon",
        "coordinates": [
          [
            [
              5.271667,
              44.094167
            ],
            [
              5.277778,
              43.95
            ],
            [
              5.416944,
              43.468056
            ],
            [
              5.435833,
              43.407222
            ],
            [
              5.707778,
              43.085
            ],
            [
              6.172778,
              42.731111
            ],
            [
              6.666667,
              42.833056
            ],
            [
              7.253056,
              42.867778
            ],
            [
              7.278889,
              43.251944
            ],
            [
              6.705556,
              43.306944
            ],
            [
              6.705556,
              43.575556
            ],
            [
              6.581667,
              43.643056
            ],
            [
              6.029722,
              43.943333
            ],
            [
              5.6275,
              44.158056
            ],
            [
              5.366667,
              44.363889
            ],
            [
              5.271667,
              44.094167
            ]
          ]
        ]
      },
      "properties": {
        "name": "ST1 UAC",
        "owner": "MM",
        "owners": [
          "MME",
          "RAE",
          "MM"
        ],
        "min": 145,
        "cur": 180,
        "max": 194,
        "color_hex": "#909967",
        "stroke": "#909967",
        "stroke-width": 1,
        "stroke-opacity": 0.7,
        "fill": "#909967",
        "fill-opacity": 0.3
      }
    },
    {
      "type": "Feature",
      "geometry": {
        "type": "Polygon",
        "coordinates": [
          [
            [
              5.271667,
              44.094167
            ],
            [
              5.366667,
              44.363889
            ],
            [
              5.3625,
              44.521944
            ],
            [
              5.366111,
              44.538333
            ],
            [
              5.352222,
              44.666667
            ],
            [
              3.701667,
              44.666667
            ],
            [
              3.577778,
              44.25
            ],
            [
              3.883056,
              43.864167
            ],
            [
              4.006389,
              43.811389
            ],
            [
              4.566667,
              43.583333
            ],
            [
              5.083333,
              43.583333
            ],
            [
              5.277778,
              43.95
            ],
            [
              5.271667,
              44.094167
            ]
          ]
        ]
      },
      "properties": {
        "name": "MO UAC",
        "owner": "MM",
        "owners": [
          "MMW",
          "RAW",
          "MM"
        ],
        "min": 145,
        "cur": 180,
        "max": 194,
        "color_hex": "#909967",
        "stroke": "#909967",
        "stroke-width": 1,
        "stroke-opacity": 0.7,
        "fill": "#909967",
        "fill-opacity": 0.3
      }
    },
    {
      "type": "Feature",
      "geometry": {
        "type": "Polygon",
        "coordinates": [
          [
            [
              6.705556,
              43.306944
            ],
            [
              6.705556,
              43.575556
            ],
            [
              6.581667,
              43.643056
            ],
            [
              6.029722,
              43.943333
            ],
            [
              5.6275,
              44.158056
            ],
            [
              5.366667,
              44.363889
            ],
            [
              5.3625,
              44.521944
            ],
            [
              5.366111,
              44.538333
            ],
            [
              6.14,
              44.538333
            ],
            [
              6.285,
              44.365278
            ],
            [
              6.673333,
              45.02
            ],
            [
              6.743056,
              45.017222
            ],
            [
              6.751111,
              44.996111
            ],
            [
              6.737778,
              44.993056
            ],
            [
              6.737778,
              44.988889
            ],
            [
              6.748611,
              44.985278
            ],
            [
              6.750556,
              44.977222
            ],
            [
              6.7625,
              44.971111
            ],
            [
              6.765278,
              44.96
            ],
            [
              6.757778,
              44.946667
            ],
            [
              6.743333,
              44.935833
            ],
            [
              6.754444,
              44.937778
            ],
            [
              6.758611,
              44.936667
            ],
            [
              6.760556,
              44.930278
            ],
            [
              6.754167,
              44.931667
            ],
            [
              6.75,
              44.905556
            ],
            [
              6.771389,
              44.902778
            ],
            [
              6.785278,
              44.889167
            ],
            [
              6.800278,
              44.890556
            ],
            [
              6.806389,
              44.876111
            ],
            [
              6.862222,
              44.85
            ],
            [
              6.915,
              44.846944
            ],
            [
              6.932222,
              44.8625
            ],
            [
              7.005833,
              44.840278
            ],
            [
              7.008333,
              44.825
            ],
            [
              7.024167,
              44.823056
            ],
            [
              7.0125,
              44.8
            ],
            [
              7.128056,
              44.813889
            ],
            [
              7.285556,
              44.142222
            ],
            [
              7.625278,
              44.145556
            ],
            [
              7.751944,
              44.023056
            ],
            [
              7.753333,
              43.938611
            ],
            [
              7.755278,
              43.819444
            ],
            [
              7.8375,
              43.701944
            ],
            [
              8.321667,
              43.570278
            ],
            [
              8.0375,
              43.431111
            ],
            [
              7.568333,
              43.307778
            ],
            [
              7.559722,
              43.305556
            ],
            [
              7.278889,
              43.251944
            ],
            [
              6.705556,
              43.306944
            ]
          ]
        ]
      },
      "properties": {
        "name": "MN1 UAC",
        "owner": "MM",
        "owners": [
          "MME",
          "RAE",
          "MM"
        ],
        "min": 175,
        "cur": 180,
        "max": 194,
        "color_hex": "#909967",
        "stroke": "#909967",
        "stroke-width": 1,
        "stroke-opacity": 0.7,
        "fill": "#909967",
        "fill-opacity": 0.3
      }
    },
    {
      "type": "Feature",
      "geometry": {
        "type": "Polygon",
        "coordinates": [
          [
            [
              4.433611,
              42.0675
            ],
            [
              4.345556,
              42.095278
            ],
            [
              4.041111,
              42.194722
            ],
            [
              3.508333,
              42.3575
            ],
            [
              3.375556,
              42.374722
            ],
            [
              3.166667,
              42.433333
            ],
            [
              3.099444,
              42.434444
            ],
            [
              3.0425,
              42.478056
            ],
            [
              2.949444,
              42.483056
            ],
            [
              2.875833,
              42.465
            ],
            [
              2.735556,
              42.591111
            ],
            [
              2.275,
              43.0
            ],
            [
              2.572222,
              43.258333
            ],
            [
              2.706667,
              43.2125
            ],
            [
              2.709444,
              43.714722
            ],
            [
              2.904167,
              44.249444
            ],
            [
              3.577778,
              44.25
            ],
            [
              3.883056,
              43.864167
            ],
            [
              4.006389,
              43.811389
            ],
            [
              4.566667,
              43.583333
            ],
            [
              5.083333,
              43.583333
            ],
            [
              5.277778,
              43.95
            ],
            [
              5.416944,
              43.468056
            ],
            [
              5.435833,
              43.407222
            ],
            [
              5.707778,
              43.085
            ],
            [
              6.172778,
              42.731111
            ],
            [
              6.253611,
              42.668611
            ],
            [
              6.483333,
              42.491667
            ],
            [
              6.358889,
              42.285278
            ],
            [
              6.183333,
              41.991667
            ],
            [
              5.193056,
              41.619722
            ],
            [
              4.666667,
              41.141667
            ],
            [
              4.666667,
              42.0
            ],
            [
              4.433611,
              42.0675
            ]
          ]
        ]
      },
      "properties": {
        "name": "ML1 UAC",
        "owner": "MM",
        "owners": [
          "MMW",
          "RAW",
          "MM"
        ],
        "min": 145,
        "cur": 180,
        "max": 194,
        "color_hex": "#909967",
        "stroke": "#909967",
        "stroke-width": 1,
        "stroke-opacity": 0.7,
        "fill": "#909967",
        "fill-opacity": 0.3
      }
    },
    {
      "type": "Feature",
      "geometry": {
        "type": "Polygon",
        "coordinates": [
          [
            [
              3.021111,
              45.223333
            ],
            [
              3.620833,
              45.899167
            ],
            [
              3.798889,
              45.954167
            ],
            [
              4.310556,
              45.884722
            ],
            [
              4.653611,
              45.853611
            ],
            [
              4.886111,
              45.948056
            ],
            [
              5.25,
              45.5
            ],
            [
              5.3,
              45.333333
            ],
            [
              5.336389,
              44.87
            ],
            [
              5.352222,
              44.666667
            ],
            [
              3.701667,
              44.666667
            ],
            [
              3.577778,
              44.25
            ],
            [
              2.904167,
              44.249444
            ],
            [
              3.041111,
              44.624722
            ],
            [
              3.040278,
              44.650556
            ],
            [
              3.021111,
              45.223333
            ]
          ]
        ]
      },
      "properties": {
        "name": "LS1 UAC",
        "owner": "MM",
        "owners": [
          "MMW",
          "RAW",
          "MM"
        ],
        "min": 145,
        "cur": 180,
        "max": 194,
        "color_hex": "#909967",
        "stroke": "#909967",
        "stroke-width": 1,
        "stroke-opacity": 0.7,
        "fill": "#909967",
        "fill-opacity": 0.3
      }
    },
    {
      "type": "Feature",
      "geometry": {
        "type": "Polygon",
        "coordinates": [
          [
            [
              4.4,
              46.5
            ],
            [
              4.886111,
              45.948056
            ],
            [
              4.653611,
              45.853611
            ],
            [
              4.310556,
              45.884722
            ],
            [
              3.798889,
              45.954167
            ],
            [
              3.620833,
              45.899167
            ],
            [
              3.021111,
              45.223333
            ],
            [
              3.004444,
              45.7125
            ],
            [
              2.916667,
              46.333333
            ],
            [
              3.266667,
              46.5
            ],
            [
              3.616667,
              46.5
            ],
            [
              4.4,
              46.5
            ]
          ]
        ]
      },
      "properties": {
        "name": "LO1 UAC",
        "owner": "MM",
        "owners": [
          "MMW",
          "RAW",
          "MM"
        ],
        "min": 145,
        "cur": 180,
        "max": 194,
        "color_hex": "#909967",
        "stroke": "#909967",
        "stroke-width": 1,
        "stroke-opacity": 0.7,
        "fill": "#909967",
        "fill-opacity": 0.3
      }
    },
    {
      "type": "Feature",
      "geometry": {
        "type": "Polygon",
        "coordinates": [
          [
            [
              4.4,
              46.5
            ],
            [
              4.674722,
              46.5
            ],
            [
              4.833333,
              46.5
            ],
            [
              4.952778,
              46.5
            ],
            [
              5.016667,
              46.5
            ],
            [
              5.090278,
              46.5
            ],
            [
              5.161667,
              46.5
            ],
            [
              5.218611,
              46.5
            ],
            [
              5.407778,
              46.363333
            ],
            [
              5.576389,
              46.237222
            ],
            [
              5.570556,
              46.060278
            ],
            [
              5.57,
              46.050556
            ],
            [
              5.572778,
              46.026944
            ],
            [
              5.580833,
              46.004167
            ],
            [
              5.593611,
              45.982222
            ],
            [
              5.600278,
              45.975278
            ],
            [
              5.611389,
              45.962222
            ],
            [
              5.633611,
              45.944444
            ],
            [
              5.659444,
              45.929167
            ],
            [
              5.6625,
              45.927778
            ],
            [
              5.581389,
              45.828889
            ],
            [
              5.554722,
              45.796389
            ],
            [
              5.701111,
              45.744722
            ],
            [
              5.976944,
              45.775278
            ],
            [
              6.096389,
              45.806389
            ],
            [
              6.132222,
              45.771944
            ],
            [
              6.230556,
              45.680278
            ],
            [
              6.259722,
              45.652778
            ],
            [
              6.333333,
              45.583333
            ],
            [
              6.339722,
              45.572222
            ],
            [
              6.399167,
              45.465556
            ],
            [
              6.746667,
              45.456944
            ],
            [
              6.835556,
              45.503611
            ],
            [
              7.110833,
              45.320556
            ],
            [
              7.1375,
              45.255278
            ],
            [
              7.073056,
              45.211389
            ],
            [
              7.0475,
              45.225
            ],
            [
              6.965278,
              45.208889
            ],
            [
              6.946667,
              45.169722
            ],
            [
              6.891667,
              45.166944
            ],
            [
              6.894444,
              45.137778
            ],
            [
              6.848333,
              45.126111
            ],
            [
              6.7675,
              45.159167
            ],
            [
              6.739167,
              45.137222
            ],
            [
              6.681667,
              45.139167
            ],
            [
              6.630833,
              45.107222
            ],
            [
              6.673333,
              45.02
            ],
            [
              6.285,
              44.365278
            ],
            [
              6.14,
              44.538333
            ],
            [
              5.366111,
              44.538333
            ],
            [
              5.352222,
              44.666667
            ],
            [
              5.336389,
              44.87
            ],
            [
              5.3,
              45.333333
            ],
            [
              5.25,
              45.5
            ],
            [
              4.886111,
              45.948056
            ],
            [
              4.4,
              46.5
            ]
          ]
        ]
      },
      "properties": {
        "name": "LE1 2 UAC",
        "owner": "MM",
        "owners": [
          "MMW",
          "RAW",
          "MM"
        ],
        "min": 175,
        "cur": 180,
        "max": 194,
        "color_hex": "#909967",
        "stroke": "#909967",
        "stroke-width": 1,
        "stroke-opacity": 0.7,
        "fill": "#909967",
        "fill-opacity": 0.3
      }
    },
    {
      "type": "Feature",
      "geometry": {
        "type": "Polygon",
        "coordinates": [
          [
            [
              6.358889,
              42.285278
            ],
            [
              7.756667,
              41.733889
            ],
            [
              8.195,
              41.567778
            ],
            [
              8.333333,
              41.514722
            ],
            [
              8.331944,
              41.330833
            ],
            [
              8.0,
              41.0
            ],
            [
              8.0,
              40.744722
            ],
            [
              6.495,
              40.706111
            ],
            [
              6.326944,
              40.508889
            ],
            [
              5.502778,
              40.398889
            ],
            [
              4.666667,
              40.030833
            ],
            [
              4.666667,
              40.5
            ],
            [
              4.666667,
              41.141667
            ],
            [
              5.193056,
              41.619722
            ],
            [
              6.183333,
              41.991667
            ],
            [
              6.358889,
              42.285278
            ]
          ]
        ]
      },
      "properties": {
        "name": "D1 1 UAC",
        "owner": "MM",
        "owners": [
          "WU",
          "MMU",
          "RAW",
          "MM"
        ],
        "min": 145,
        "cur": 180,
        "max": 194,
        "color_hex": "#909967",
        "stroke": "#909967",
        "stroke-width": 1,
        "stroke-opacity": 0.7,
        "fill": "#909967",
        "fill-opacity": 0.3
      }
    },
    {
      "type": "Feature",
      "geometry": {
        "type": "Polygon",
        "coordinates": [
          [
            [
              7.278889,
              43.251944
            ],
            [
              7.559722,
              43.305556
            ],
            [
              7.568333,
              43.307778
            ],
            [
              8.0375,
              43.431111
            ],
            [
              8.321667,
              43.570278
            ],
            [
              8.406667,
              43.5475
            ],
            [
              8.915,
              43.405278
            ],
            [
              9.75,
              43.166667
            ],
            [
              9.75,
              42.953889
            ],
            [
              9.75,
              42.334167
            ],
            [
              8.847778,
              42.406667
            ],
            [
              8.204722,
              42.303333
            ],
            [
              8.011944,
              42.580278
            ],
            [
              7.699167,
              42.643611
            ],
            [
              7.253056,
              42.867778
            ],
            [
              7.278889,
              43.251944
            ]
          ]
        ]
      },
      "properties": {
        "name": "BT1 UAC",
        "owner": "MM",
        "owners": [
          "MME",
          "RAE",
          "MM"
        ],
        "min": 145,
        "cur": 180,
        "max": 194,
        "color_hex": "#909967",
        "stroke": "#909967",
        "stroke-width": 1,
        "stroke-opacity": 0.7,
        "fill": "#909967",
        "fill-opacity": 0.3
      }
    },
    {
      "type": "Feature",
      "geometry": {
        "type": "Polygon",
        "coordinates": [
          [
            [
              6.358889,
              42.285278
            ],
            [
              7.756667,
              41.733889
            ],
            [
              8.195,
              41.567778
            ],
            [
              8.333333,
              41.514722
            ],
            [
              8.331944,
              41.330833
            ],
            [
              8.833056,
              41.331944
            ],
            [
              9.082778,
              41.3325
            ],
            [
              9.316667,
              41.333333
            ],
            [
              9.498056,
              41.331944
            ],
            [
              9.75,
              41.331944
            ],
            [
              9.75,
              41.673333
            ],
            [
              9.75,
              41.790556
            ],
            [
              9.75,
              41.929167
            ],
            [
              9.75,
              42.334167
            ],
            [
              8.847778,
              42.406667
            ],
            [
              8.204722,
              42.303333
            ],
            [
              8.011944,
              42.580278
            ],
            [
              7.699167,
              42.643611
            ],
            [
              7.253056,
              42.867778
            ],
            [
              6.666667,
              42.833056
            ],
            [
              6.172778,
              42.731111
            ],
            [
              6.253611,
              42.668611
            ],
            [
              6.483333,
              42.491667
            ],
            [
              6.358889,
              42.285278
            ]
          ]
        ]
      },
      "properties": {
        "name": "AJ 1 UAC",
        "owner": "MM",
        "owners": [
          "MME",
          "RAE",
          "MM"
        ],
        "min": 145,
        "cur": 180,
        "max": 194,
        "color_hex": "#909967",
        "stroke": "#909967",
        "stroke-width": 1,
        "stroke-opacity": 0.7,
        "fill": "#909967",
        "fill-opacity": 0.3
      }
    },
    {
      "type": "Feature",
      "geometry": {
        "type": "Polygon",
        "coordinates": [
          [
            [
              1.084722,
              49.094444
            ],
            [
              1.266667,
              49.083333
            ],
            [
              1.495278,
              49.101111
            ],
            [
              1.488333,
              49.138611
            ],
            [
              1.468056,
              49.2525
            ],
            [
              1.570278,
              49.3
            ],
            [
              1.612778,
              49.380278
            ],
            [
              1.606111,
              49.455556
            ],
            [
              1.641389,
              49.502778
            ],
            [
              1.663333,
              49.537222
            ],
            [
              1.905,
              49.507222
            ],
            [
              1.975278,
              49.498889
            ],
            [
              1.833333,
              49.622778
            ],
            [
              1.716667,
              49.723889
            ],
            [
              1.510556,
              49.899722
            ],
            [
              1.388056,
              49.9975
            ],
            [
              1.018889,
              50.274722
            ],
            [
              0.821389,
              50.421389
            ],
            [
              0.769722,
              50.401389
            ],
            [
              0.096111,
              50.137778
            ],
            [
              -0.25,
              50.0
            ],
            [
              -0.25,
              49.816667
            ],
            [
              -0.25,
              49.566667
            ],
            [
              -0.25,
              49.526667
            ],
            [
              -0.25,
              49.166667
            ],
            [
              1.084722,
              49.094444
            ]
          ]
        ]
      },
      "properties": {
        "name": "TP1 UAC",
        "owner": "PAR",
        "owners": [
          "TP",
          "HPKZ",
          "OPKZ",
          "RPAW",
          "PARL",
          "PAR"
        ],
        "min": 115,
        "cur": 180,
        "max": 194,
        "color_hex": "#4067a9",
        "stroke": "#4067a9",
        "stroke-width": 1,
        "stroke-opacity": 0.7,
        "fill": "#4067a9",
        "fill-opacity": 0.3
      }
    },
    {
      "type": "Feature",
      "geometry": {
        "type": "Polygon",
        "coordinates": [
          [
            [
              1.975278,
              49.498889
            ],
            [
              2.258889,
              49.463333
            ],
            [
              2.333056,
              49.453889
            ],
            [
              2.498611,
              49.433333
            ],
            [
              2.602778,
              49.471389
            ],
            [
              2.645278,
              49.486944
            ],
            [
              2.0,
              50.716667
            ],
            [
              1.466667,
              51.0
            ],
            [
              1.465,
              50.905278
            ],
            [
              1.734722,
              50.712222
            ],
            [
              1.636389,
              50.656944
            ],
            [
              1.538333,
              50.601667
            ],
            [
              1.858611,
              50.171389
            ],
            [
              1.7575,
              50.116389
            ],
            [
              1.651667,
              50.058611
            ],
            [
              1.018889,
              50.274722
            ],
            [
              1.388056,
              49.9975
            ],
            [
              1.510556,
              49.899722
            ],
            [
              1.716667,
              49.723889
            ],
            [
              1.833333,
              49.622778
            ],
            [
              1.975278,
              49.498889
            ]
          ]
        ]
      },
      "properties": {
        "name": "TN UAC",
        "owner": "PAR",
        "owners": [
          "TN",
          "TNTB",
          "AENB",
          "RPAW",
          "PARL",
          "PAR"
        ],
        "min": 115,
        "cur": 180,
        "max": 194,
        "color_hex": "#4067a9",
        "stroke": "#4067a9",
        "stroke-width": 1,
        "stroke-opacity": 0.7,
        "fill": "#4067a9",
        "fill-opacity": 0.3
      }
    },
    {
      "type": "Feature",
      "geometry": {
        "type": "Polygon",
        "coordinates": [
          [
            [
              5.549722,
              49.263056
            ],
            [
              5.634167,
              49.3
            ],
            [
              5.886667,
              49.403056
            ],
            [
              5.997778,
              49.449167
            ],
            [
              5.811944,
              49.4525
            ],
            [
              5.793056,
              49.452778
            ],
            [
              5.755556,
              49.542222
            ],
            [
              5.75,
              49.541667
            ],
            [
              5.452222,
              49.5175
            ],
            [
              5.442222,
              49.567778
            ],
            [
              4.05,
              49.266667
            ],
            [
              3.860833,
              49.241944
            ],
            [
              3.738889,
              49.158333
            ],
            [
              3.661667,
              49.105556
            ],
            [
              3.661111,
              49.081111
            ],
            [
              3.661111,
              49.074444
            ],
            [
              3.660556,
              49.033056
            ],
            [
              3.660278,
              49.000556
            ],
            [
              3.813333,
              48.993056
            ],
            [
              4.8,
              48.95
            ],
            [
              5.549722,
              49.263056
            ]
          ]
        ]
      },
      "properties": {
        "name": "TM UAC",
        "owner": "PAR",
        "owners": [
          "TM",
          "TML",
          "ARML",
          "AOML",
          "RPAE",
          "PARL",
          "PAR"
        ],
        "min": 165,
        "cur": 180,
        "max": 194,
        "color_hex": "#4067a9",
        "stroke": "#4067a9",
        "stroke-width": 1,
        "stroke-opacity": 0.7,
        "fill": "#4067a9",
        "fill-opacity": 0.3
      }
    },
    {
      "type": "Feature",
      "geometry": {
        "type": "Polygon",
        "coordinates": [
          [
            [
              3.656667,
              48.736667
            ],
            [
              3.660278,
              49.000556
            ],
            [
              3.813333,
              48.993056
            ],
            [
              4.8,
              48.95
            ],
            [
              5.398611,
              48.504167
            ],
            [
              5.398611,
              48.370556
            ],
            [
              5.336667,
              48.309444
            ],
            [
              5.166667,
              48.166667
            ],
            [
              4.952778,
              47.974167
            ],
            [
              4.458333,
              48.270278
            ],
            [
              4.101389,
              48.462778
            ],
            [
              3.915556,
              48.543889
            ],
            [
              3.81,
              48.600278
            ],
            [
              3.853056,
              48.639444
            ],
            [
              3.781667,
              48.672222
            ],
            [
              3.656389,
              48.700556
            ],
            [
              3.656667,
              48.736667
            ]
          ]
        ]
      },
      "properties": {
        "name": "TL UAC",
        "owner": "PAR",
        "owners": [
          "TL",
          "TML",
          "ARML",
          "AOML",
          "RPAE",
          "PARL",
          "PAR"
        ],
        "min": 115,
        "cur": 180,
        "max": 194,
        "color_hex": "#4067a9",
        "stroke": "#4067a9",
        "stroke-width": 1,
        "stroke-opacity": 0.7,
        "fill": "#4067a9",
        "fill-opacity": 0.3
      }
    },
    {
      "type": "Feature",
      "geometry": {
        "type": "Polygon",
        "coordinates": [
          [
            [
              1.495278,
              49.101111
            ],
            [
              1.436111,
              48.958611
            ],
            [
              1.429722,
              48.943333
            ],
            [
              1.419167,
              48.917222
            ],
            [
              1.425278,
              48.705556
            ],
            [
              1.373889,
              48.687778
            ],
            [
              1.2,
              48.666667
            ],
            [
              1.106111,
              48.652778
            ],
            [
              0.489722,
              48.337778
            ],
            [
              0.226667,
              48.201111
            ],
            [
              -0.071111,
              48.048056
            ],
            [
              -0.25,
              47.933056
            ],
            [
              -0.25,
              48.172222
            ],
            [
              -0.25,
              48.462222
            ],
            [
              -0.25,
              48.658889
            ],
            [
              -0.25,
              48.883889
            ],
            [
              -0.25,
              48.941667
            ],
            [
              -0.25,
              48.9525
            ],
            [
              -0.25,
              49.097222
            ],
            [
              -0.25,
              49.166667
            ],
            [
              1.084722,
              49.094444
            ],
            [
              1.266667,
              49.083333
            ],
            [
              1.495278,
              49.101111
            ]
          ]
        ]
      },
      "properties": {
        "name": "TH UAC",
        "owner": "PAR",
        "owners": [
          "TH",
          "THUZ",
          "HPKZ",
          "OPKZ",
          "RPAW",
          "PARL",
          "PAR"
        ],
        "min": 115,
        "cur": 180,
        "max": 194,
        "color_hex": "#4067a9",
        "stroke": "#4067a9",
        "stroke-width": 1,
        "stroke-opacity": 0.7,
        "fill": "#4067a9",
        "fill-opacity": 0.3
      }
    },
    {
      "type": "Feature",
      "geometry": {
        "type": "Polygon",
        "coordinates": [
          [
            [
              3.926667,
              50.333889
            ],
            [
              3.973056,
              50.328333
            ],
            [
              4.089722,
              50.314722
            ],
            [
              4.118889,
              50.296667
            ],
            [
              4.178056,
              50.224722
            ],
            [
              4.148889,
              50.034444
            ],
            [
              4.145833,
              49.980556
            ],
            [
              4.150278,
              49.980278
            ],
            [
              4.366667,
              49.961667
            ],
            [
              4.483333,
              49.95
            ],
            [
              4.566667,
              49.975
            ],
            [
              4.866667,
              49.983333
            ],
            [
              4.857778,
              49.861944
            ],
            [
              4.858333,
              49.8
            ],
            [
              4.988056,
              49.8
            ],
            [
              5.115,
              49.736111
            ],
            [
              5.163333,
              49.716667
            ],
            [
              5.262778,
              49.693056
            ],
            [
              5.291111,
              49.677222
            ],
            [
              5.315833,
              49.648333
            ],
            [
              5.371667,
              49.625278
            ],
            [
              5.383333,
              49.616667
            ],
            [
              5.420556,
              49.601111
            ],
            [
              5.442222,
              49.567778
            ],
            [
              4.05,
              49.266667
            ],
            [
              3.860833,
              49.241944
            ],
            [
              3.738889,
              49.158333
            ],
            [
              3.739444,
              49.198889
            ],
            [
              3.683056,
              49.268611
            ],
            [
              3.632222,
              49.45
            ],
            [
              3.484722,
              49.714722
            ],
            [
              3.351389,
              49.688889
            ],
            [
              3.7875,
              50.339722
            ],
            [
              3.873056,
              50.340556
            ],
            [
              3.926667,
              50.333889
            ]
          ]
        ]
      },
      "properties": {
        "name": "TE UAC",
        "owner": "PAR",
        "owners": [
          "TE",
          "APTE",
          "AENB",
          "RPAW",
          "PARL",
          "PAR"
        ],
        "min": 115,
        "cur": 180,
        "max": 194,
        "color_hex": "#4067a9",
        "stroke": "#4067a9",
        "stroke-width": 1,
        "stroke-opacity": 0.7,
        "fill": "#4067a9",
        "fill-opacity": 0.3
      }
    },
    {
      "type": "Feature",
      "geometry": {
        "type": "Polygon",
        "coordinates": [
          [
            [
              2.0,
              50.716667
            ],
            [
              2.645278,
              49.486944
            ],
            [
              2.708889,
              49.510556
            ],
            [
              2.743889,
              49.635278
            ],
            [
              2.782778,
              49.674167
            ],
            [
              2.976389,
              49.6025
            ],
            [
              3.105556,
              49.611667
            ],
            [
              3.236389,
              49.666667
            ],
            [
              3.351389,
              49.688889
            ],
            [
              3.7875,
              50.339722
            ],
            [
              3.675,
              50.342222
            ],
            [
              3.666667,
              50.35
            ],
            [
              3.666667,
              50.416667
            ],
            [
              3.645556,
              50.451944
            ],
            [
              3.633333,
              50.473333
            ],
            [
              3.600556,
              50.483889
            ],
            [
              3.566944,
              50.500278
            ],
            [
              3.511667,
              50.526667
            ],
            [
              3.484722,
              50.519444
            ],
            [
              3.376667,
              50.495
            ],
            [
              3.361667,
              50.515
            ],
            [
              3.284167,
              50.594722
            ],
            [
              3.27,
              50.609722
            ],
            [
              3.225,
              50.678333
            ],
            [
              3.15,
              50.783333
            ],
            [
              2.9,
              50.7
            ],
            [
              2.816667,
              50.725
            ],
            [
              2.716667,
              50.8
            ],
            [
              2.633333,
              50.816667
            ],
            [
              2.572778,
              51.015556
            ],
            [
              2.327778,
              51.03
            ],
            [
              2.243611,
              51.100556
            ],
            [
              2.0,
              51.116667
            ],
            [
              1.825,
              51.079167
            ],
            [
              1.7625,
              51.065
            ],
            [
              1.732222,
              51.058056
            ],
            [
              1.466667,
              51.0
            ],
            [
              2.0,
              50.716667
            ]
          ]
        ]
      },
      "properties": {
        "name": "TB UAC",
        "owner": "PAR",
        "owners": [
          "TB",
          "TNTB",
          "AENB",
          "RPAW",
          "PARL",
          "PAR"
        ],
        "min": 115,
        "cur": 180,
        "max": 194,
        "color_hex": "#4067a9",
        "stroke": "#4067a9",
        "stroke-width": 1,
        "stroke-opacity": 0.7,
        "fill": "#4067a9",
        "fill-opacity": 0.3
      }
    },
    {
      "type": "Feature",
      "geometry": {
        "type": "Polygon",
        "coordinates": [
          [
            [
              2.243611,
              51.100556
            ],
            [
              2.55,
              51.083333
            ],
            [
              2.572778,
              51.015556
            ],
            [
              2.327778,
              51.03
            ],
            [
              2.243611,
              51.100556
            ]
          ]
        ]
      },
      "properties": {
        "name": "TB UAC",
        "owner": "PAR",
        "owners": [
          "TB",
          "TNTB",
          "AENB",
          "RPAW",
          "PARL",
          "PAR"
        ],
        "min": 95,
        "cur": 180,
        "max": 194,
        "color_hex": "#4067a9",
        "stroke": "#4067a9",
        "stroke-width": 1,
        "stroke-opacity": 0.7,
        "fill": "#4067a9",
        "fill-opacity": 0.3
      }
    },
    {
      "type": "Feature",
      "geometry": {
        "type": "Polygon",
        "coordinates": [
          [
            [
              2.867778,
              46.5775
            ],
            [
              2.833333,
              46.75
            ],
            [
              2.182222,
              47.072222
            ],
            [
              2.168889,
              47.081944
            ],
            [
              2.0,
              47.166667
            ],
            [
              1.504444,
              47.166667
            ],
            [
              1.466667,
              47.166389
            ],
            [
              1.633611,
              47.550278
            ],
            [
              1.655556,
              47.658611
            ],
            [
              1.676667,
              47.762778
            ],
            [
              1.690556,
              47.831667
            ],
            [
              2.055556,
              47.719444
            ],
            [
              2.704167,
              47.719444
            ],
            [
              2.831667,
              47.734167
            ],
            [
              3.362778,
              47.795278
            ],
            [
              3.528611,
              47.5275
            ],
            [
              4.333333,
              47.416667
            ],
            [
              4.270556,
              47.359167
            ],
            [
              4.366944,
              46.88
            ],
            [
              4.65,
              46.583333
            ],
            [
              4.674722,
              46.5
            ],
            [
              4.4,
              46.5
            ],
            [
              3.616667,
              46.5
            ],
            [
              3.266667,
              46.5
            ],
            [
              2.916667,
              46.333333
            ],
            [
              2.867778,
              46.5775
            ]
          ]
        ]
      },
      "properties": {
        "name": "S UAC",
        "owner": "PAR",
        "owners": [
          "DODG",
          "DOGS",
          "FPAE",
          "DGTJ",
          "RPAE",
          "PARL",
          "PAR"
        ],
        "min": 115,
        "cur": 180,
        "max": 194,
        "color_hex": "#4067a9",
        "stroke": "#4067a9",
        "stroke-width": 1,
        "stroke-opacity": 0.7,
        "fill": "#4067a9",
        "fill-opacity": 0.3
      }
    },
    {
      "type": "Feature",
      "geometry": {
        "type": "Polygon",
        "coordinates": [
          [
            [
              1.373889,
              48.687778
            ],
            [
              1.286111,
              48.657222
            ],
            [
              1.326944,
              48.513056
            ],
            [
              1.37,
              48.389167
            ],
            [
              1.190556,
              48.234444
            ],
            [
              0.9175,
              47.989444
            ],
            [
              0.5575,
              47.5175
            ],
            [
              0.570556,
              47.166667
            ],
            [
              0.3,
              47.166667
            ],
            [
              -0.25,
              47.166667
            ],
            [
              -0.25,
              47.350556
            ],
            [
              -0.25,
              47.443889
            ],
            [
              -0.25,
              47.523056
            ],
            [
              -0.25,
              47.630833
            ],
            [
              -0.25,
              47.733056
            ],
            [
              -0.25,
              47.933056
            ],
            [
              -0.071111,
              48.048056
            ],
            [
              0.226667,
              48.201111
            ],
            [
              0.489722,
              48.337778
            ],
            [
              1.106111,
              48.652778
            ],
            [
              1.2,
              48.666667
            ],
            [
              1.373889,
              48.687778
            ]
          ]
        ]
      },
      "properties": {
        "name": "RT1 UAC",
        "owner": "PAR",
        "owners": [
          "RT",
          "ORGY",
          "OPKZ",
          "RPAW",
          "PARL",
          "PAR"
        ],
        "min": 145,
        "cur": 180,
        "max": 194,
        "color_hex": "#4067a9",
        "stroke": "#4067a9",
        "stroke-width": 1,
        "stroke-opacity": 0.7,
        "fill": "#4067a9",
        "fill-opacity": 0.3
      }
    },
    {
      "type": "Feature",
      "geometry": {
        "type": "Polygon",
        "coordinates": [
          [
            [
              1.466667,
              47.166389
            ],
            [
              1.633611,
              47.550278
            ],
            [
              1.655556,
              47.658611
            ],
            [
              1.676667,
              47.762778
            ],
            [
              1.690556,
              47.831667
            ],
            [
              1.715278,
              47.953611
            ],
            [
              1.750833,
              48.059167
            ],
            [
              1.768333,
              48.110278
            ],
            [
              1.726111,
              48.058889
            ],
            [
              1.709167,
              48.049167
            ],
            [
              1.618889,
              48.023056
            ],
            [
              1.459444,
              48.131389
            ],
            [
              1.37,
              48.389167
            ],
            [
              1.190556,
              48.234444
            ],
            [
              0.9175,
              47.989444
            ],
            [
              0.5575,
              47.5175
            ],
            [
              0.570556,
              47.166667
            ],
            [
              0.697222,
              47.166667
            ],
            [
              1.466667,
              47.166389
            ]
          ]
        ]
      },
      "properties": {
        "name": "OT1 UAC",
        "owner": "PAR",
        "owners": [
          "LOT",
          "ORGY",
          "OPKZ",
          "RPAW",
          "PARL",
          "PAR"
        ],
        "min": 115,
        "cur": 180,
        "max": 194,
        "color_hex": "#4067a9",
        "stroke": "#4067a9",
        "stroke-width": 1,
        "stroke-opacity": 0.7,
        "fill": "#4067a9",
        "fill-opacity": 0.3
      }
    },
    {
      "type": "Feature",
      "geometry": {
        "type": "Polygon",
        "coordinates": [
          [
            [
              3.048611,
              48.107778
            ],
            [
              3.053889,
              48.101389
            ],
            [
              3.164722,
              48.0
            ],
            [
              3.250833,
              47.920556
            ],
            [
              3.362778,
              47.795278
            ],
            [
              2.831667,
              47.734167
            ],
            [
              2.704167,
              47.719444
            ],
            [
              2.055556,
              47.719444
            ],
            [
              1.690556,
              47.831667
            ],
            [
              1.715278,
              47.953611
            ],
            [
              1.750833,
              48.059167
            ],
            [
              1.768333,
              48.110278
            ],
            [
              1.793611,
              48.15
            ],
            [
              1.897222,
              48.297222
            ],
            [
              2.906667,
              48.273611
            ],
            [
              3.048611,
              48.107778
            ]
          ]
        ]
      },
      "properties": {
        "name": "DO1 UAC",
        "owner": "PAR",
        "owners": [
          "DG",
          "DODG",
          "DOGS",
          "FPAE",
          "DGTJ",
          "RPAE",
          "PARL",
          "PAR"
        ],
        "min": 115,
        "cur": 180,
        "max": 194,
        "color_hex": "#4067a9",
        "stroke": "#4067a9",
        "stroke-width": 1,
        "stroke-opacity": 0.7,
        "fill": "#4067a9",
        "fill-opacity": 0.3
      }
    },
    {
      "type": "Feature",
      "geometry": {
        "type": "Polygon",
        "coordinates": [
          [
            [
              3.81,
              48.600278
            ],
            [
              3.915556,
              48.543889
            ],
            [
              4.101389,
              48.462778
            ],
            [
              4.458333,
              48.270278
            ],
            [
              4.952778,
              47.974167
            ],
            [
              4.755833,
              47.800278
            ],
            [
              4.580556,
              47.642778
            ],
            [
              3.844167,
              48.162778
            ],
            [
              3.625833,
              48.315278
            ],
            [
              3.508056,
              48.38
            ],
            [
              3.637778,
              48.456944
            ],
            [
              3.81,
              48.600278
            ]
          ]
        ]
      },
      "properties": {
        "name": "AR1 UAC",
        "owner": "PAR",
        "owners": [
          "AR",
          "ARML",
          "AOML",
          "RPAE",
          "PARL",
          "PAR"
        ],
        "min": 115,
        "cur": 180,
        "max": 194,
        "color_hex": "#4067a9",
        "stroke": "#4067a9",
        "stroke-width": 1,
        "stroke-opacity": 0.7,
        "fill": "#4067a9",
        "fill-opacity": 0.3
      }
    },
    {
      "type": "Feature",
      "geometry": {
        "type": "Polygon",
        "coordinates": [
          [
            [
              3.461111,
              48.3525
            ],
            [
              3.508056,
              48.38
            ],
            [
              3.625833,
              48.315278
            ],
            [
              3.844167,
              48.162778
            ],
            [
              4.580556,
              47.642778
            ],
            [
              4.333333,
              47.416667
            ],
            [
              3.528611,
              47.5275
            ],
            [
              3.362778,
              47.795278
            ],
            [
              3.250833,
              47.920556
            ],
            [
              3.164722,
              48.0
            ],
            [
              3.053889,
              48.101389
            ],
            [
              3.048611,
              48.107778
            ],
            [
              3.461111,
              48.3525
            ]
          ]
        ]
      },
      "properties": {
        "name": "AO1 UAC",
        "owner": "PAR",
        "owners": [
          "AO",
          "AOUS",
          "AOML",
          "RPAE",
          "PARL",
          "PAR"
        ],
        "min": 115,
        "cur": 180,
        "max": 194,
        "color_hex": "#4067a9",
        "stroke": "#4067a9",
        "stroke-width": 1,
        "stroke-opacity": 0.7,
        "fill": "#4067a9",
        "fill-opacity": 0.3
      }
    },
    {
      "type": "Feature",
      "geometry": {
        "type": "Polygon",
        "coordinates": [
          [
            [
              1.768333,
              48.110278
            ],
            [
              1.793611,
              48.15
            ],
            [
              1.897222,
              48.297222
            ],
            [
              2.906667,
              48.273611
            ],
            [
              3.048611,
              48.107778
            ],
            [
              3.461111,
              48.3525
            ],
            [
              3.385556,
              48.4
            ],
            [
              3.2825,
              48.47
            ],
            [
              3.222222,
              48.624444
            ],
            [
              3.2125,
              48.669722
            ],
            [
              3.138333,
              48.7375
            ],
            [
              3.048056,
              48.818611
            ],
            [
              2.978056,
              48.855833
            ],
            [
              2.948611,
              48.855833
            ],
            [
              2.847778,
              48.856389
            ],
            [
              2.5575,
              48.852778
            ],
            [
              2.499167,
              48.851944
            ],
            [
              2.415,
              48.850833
            ],
            [
              2.412222,
              48.836944
            ],
            [
              2.410833,
              48.835
            ],
            [
              2.404444,
              48.831944
            ],
            [
              2.399444,
              48.828611
            ],
            [
              2.391389,
              48.8275
            ],
            [
              2.385278,
              48.825556
            ],
            [
              2.378056,
              48.821389
            ],
            [
              2.362778,
              48.816111
            ],
            [
              2.355833,
              48.816667
            ],
            [
              2.352778,
              48.818056
            ],
            [
              2.350278,
              48.817778
            ],
            [
              2.346667,
              48.816389
            ],
            [
              2.335,
              48.816944
            ],
            [
              2.332222,
              48.818611
            ],
            [
              2.290833,
              48.828056
            ],
            [
              2.0975,
              48.8225
            ],
            [
              1.996944,
              48.820278
            ],
            [
              1.968889,
              48.819167
            ],
            [
              1.829444,
              48.790278
            ],
            [
              1.797778,
              48.7675
            ],
            [
              1.7625,
              48.714444
            ],
            [
              1.695556,
              48.621667
            ],
            [
              1.651111,
              48.561389
            ],
            [
              1.583056,
              48.479722
            ],
            [
              1.37,
              48.389167
            ],
            [
              1.459444,
              48.131389
            ],
            [
              1.618889,
              48.023056
            ],
            [
              1.709167,
              48.049167
            ],
            [
              1.726111,
              48.058889
            ],
            [
              1.768333,
              48.110278
            ]
          ]
        ]
      },
      "properties": {
        "name": "EGA ORLY-CDG",
        "owner": "PAR",
        "owners": [
          "PGS",
          "PGN",
          "DODG",
          "DOGS",
          "FPAE",
          "RPAE",
          "PARL",
          "PAR"
        ],
        "min": 165,
        "cur": 180,
        "max": 194,
        "color_hex": "#4067a9",
        "stroke": "#4067a9",
        "stroke-width": 1,
        "stroke-opacity": 0.7,
        "fill": "#4067a9",
        "fill-opacity": 0.3
      }
    },
    {
      "type": "Feature",
      "geometry": {
        "type": "Polygon",
        "coordinates": [
          [
            [
              3.461111,
              48.3525
            ],
            [
              3.508056,
              48.38
            ],
            [
              3.637778,
              48.456944
            ],
            [
              3.81,
              48.600278
            ],
            [
              3.853056,
              48.639444
            ],
            [
              3.781667,
              48.672222
            ],
            [
              3.656389,
              48.700556
            ],
            [
              3.656667,
              48.736667
            ],
            [
              3.660278,
              49.000556
            ],
            [
              3.660556,
              49.033056
            ],
            [
              3.661111,
              49.074444
            ],
            [
              3.509722,
              49.065833
            ],
            [
              3.471389,
              49.063611
            ],
            [
              3.211111,
              49.048611
            ],
            [
              3.151389,
              49.045278
            ],
            [
              2.984167,
              49.035833
            ],
            [
              2.801944,
              49.025278
            ],
            [
              2.584444,
              49.0125
            ],
            [
              2.579722,
              49.012222
            ],
            [
              2.5725,
              49.011944
            ],
            [
              2.557778,
              49.011111
            ],
            [
              2.5525,
              49.010833
            ],
            [
              2.549722,
              49.010556
            ],
            [
              2.530278,
              49.009444
            ],
            [
              2.508056,
              49.007778
            ],
            [
              2.493056,
              49.006944
            ],
            [
              2.181111,
              48.992778
            ],
            [
              2.000278,
              48.984722
            ],
            [
              1.7525,
              48.973333
            ],
            [
              1.557222,
              48.964167
            ],
            [
              1.436111,
              48.958611
            ],
            [
              1.429722,
              48.943333
            ],
            [
              1.419167,
              48.917222
            ],
            [
              1.425278,
              48.705556
            ],
            [
              1.373889,
              48.687778
            ],
            [
              1.286111,
              48.657222
            ],
            [
              1.326944,
              48.513056
            ],
            [
              1.37,
              48.389167
            ],
            [
              1.583056,
              48.479722
            ],
            [
              1.651111,
              48.561389
            ],
            [
              1.695556,
              48.621667
            ],
            [
              1.7625,
              48.714444
            ],
            [
              1.797778,
              48.7675
            ],
            [
              1.829444,
              48.790278
            ],
            [
              1.968889,
              48.819167
            ],
            [
              1.996944,
              48.820278
            ],
            [
              2.0975,
              48.8225
            ],
            [
              2.290833,
              48.828056
            ],
            [
              2.332222,
              48.818611
            ],
            [
              2.335,
              48.816944
            ],
            [
              2.346667,
              48.816389
            ],
            [
              2.350278,
              48.817778
            ],
            [
              2.352778,
              48.818056
            ],
            [
              2.355833,
              48.816667
            ],
            [
              2.362778,
              48.816111
            ],
            [
              2.378056,
              48.821389
            ],
            [
              2.385278,
              48.825556
            ],
            [
              2.391389,
              48.8275
            ],
            [
              2.399444,
              48.828611
            ],
            [
              2.404444,
              48.831944
            ],
            [
              2.410833,
              48.835
            ],
            [
              2.412222,
              48.836944
            ],
            [
              2.415,
              48.850833
            ],
            [
              2.499167,
              48.851944
            ],
            [
              2.5575,
              48.852778
            ],
            [
              2.847778,
              48.856389
            ],
            [
              2.948611,
              48.855833
            ],
            [
              2.978056,
              48.855833
            ],
            [
              3.048056,
              48.818611
            ],
            [
              3.138333,
              48.7375
            ],
            [
              3.2125,
              48.669722
            ],
            [
              3.222222,
              48.624444
            ],
            [
              3.2825,
              48.47
            ],
            [
              3.385556,
              48.4
            ],
            [
              3.461111,
              48.3525
            ]
          ]
        ]
      },
      "properties": {
        "name": "EGA CDG-S",
        "owner": "PAR",
        "owners": [
          "PGS",
          "PGN",
          "DODG",
          "DOGS",
          "FPAE",
          "RPAE",
          "PARL",
          "PAR"
        ],
        "min": 115,
        "cur": 180,
        "max": 194,
        "color_hex": "#4067a9",
        "stroke": "#4067a9",
        "stroke-width": 1,
        "stroke-opacity": 0.7,
        "fill": "#4067a9",
        "fill-opacity": 0.3
      }
    },
    {
      "type": "Feature",
      "geometry": {
        "type": "Polygon",
        "coordinates": [
          [
            [
              2.782778,
              49.674167
            ],
            [
              2.743889,
              49.635278
            ],
            [
              2.708889,
              49.510556
            ],
            [
              2.645278,
              49.486944
            ],
            [
              2.602778,
              49.471389
            ],
            [
              2.498611,
              49.433333
            ],
            [
              2.333056,
              49.453889
            ],
            [
              2.258889,
              49.463333
            ],
            [
              1.975278,
              49.498889
            ],
            [
              1.905,
              49.507222
            ],
            [
              1.663333,
              49.537222
            ],
            [
              1.641389,
              49.502778
            ],
            [
              1.606111,
              49.455556
            ],
            [
              1.612778,
              49.380278
            ],
            [
              1.570278,
              49.3
            ],
            [
              1.468056,
              49.2525
            ],
            [
              1.488333,
              49.138611
            ],
            [
              1.495278,
              49.101111
            ],
            [
              1.436111,
              48.958611
            ],
            [
              1.557222,
              48.964167
            ],
            [
              1.7525,
              48.973333
            ],
            [
              2.000278,
              48.984722
            ],
            [
              2.181111,
              48.992778
            ],
            [
              2.493056,
              49.006944
            ],
            [
              2.508056,
              49.007778
            ],
            [
              2.530278,
              49.009444
            ],
            [
              2.549722,
              49.010556
            ],
            [
              2.5525,
              49.010833
            ],
            [
              2.557778,
              49.011111
            ],
            [
              2.5725,
              49.011944
            ],
            [
              2.579722,
              49.012222
            ],
            [
              2.584444,
              49.0125
            ],
            [
              2.801944,
              49.025278
            ],
            [
              2.984167,
              49.035833
            ],
            [
              3.151389,
              49.045278
            ],
            [
              3.211111,
              49.048611
            ],
            [
              3.471389,
              49.063611
            ],
            [
              3.509722,
              49.065833
            ],
            [
              3.661111,
              49.074444
            ],
            [
              3.661111,
              49.081111
            ],
            [
              3.661667,
              49.105556
            ],
            [
              3.738889,
              49.158333
            ],
            [
              3.739444,
              49.198889
            ],
            [
              3.683056,
              49.268611
            ],
            [
              3.632222,
              49.45
            ],
            [
              3.484722,
              49.714722
            ],
            [
              3.351389,
              49.688889
            ],
            [
              3.236389,
              49.666667
            ],
            [
              3.105556,
              49.611667
            ],
            [
              2.976389,
              49.6025
            ],
            [
              2.782778,
              49.674167
            ]
          ]
        ]
      },
      "properties": {
        "name": "EGA CDG-N",
        "owner": "PAR",
        "owners": [
          "PGN",
          "DODG",
          "DOGS",
          "FPAE",
          "RPAE",
          "PARL",
          "PAR"
        ],
        "min": 115,
        "cur": 180,
        "max": 194,
        "color_hex": "#4067a9",
        "stroke": "#4067a9",
        "stroke-width": 1,
        "stroke-opacity": 0.7,
        "fill": "#4067a9",
        "fill-opacity": 0.3
      }
    }
  ]
}